NORAD_CAT_ID,OBJECT_NAME,OBJECT_TYPE,EPOCH,MEAN_MOTION,ECCENTRICITY,INCLINATION,RA_OF_ASC_NODE,ARG_OF_PERICENTER,MEAN_ANOMALY,BSTAR,MEAN_MOTION_DOT,MEAN_MOTION_DDOT,TLE_LINE0,TLE_LINE1,TLE_LINE2,SEMIMAJOR_AXIS,PERIOD,APOGEE,PERIGEE,DECAYED
53246.0,STARLINK-4131,PAYLOAD,2022-10-25 22:00:01,15.08803921,0.0002628,53.2159,329.2728,30.2974,109.9504,0.0026355,0.00041865,0.0,0 STARLINK-4131,1 53246U 22086E   22298.91668981  .00041865  00000-0  26355-2 0  9996,2 53246  53.2159 329.2728 0002628  30.2974 109.9504 15.08803921  1302,6917.991,95.44,541.674,538.038,0.0
53246.0,STARLINK-4131,PAYLOAD,2022-10-26 14:00:01,15.08826315,0.0002948,53.2159,326.2815,29.9198,133.4246,0.0023552,0.00037382,0.0,0 STARLINK-4131,1 53246U 22086E   22299.58334491  .00037382  00000-0  23552-2 0  9991,2 53246  53.2159 326.2815 0002948  29.9198 133.4246 15.08826315  1301,6917.922,95.438,541.827,537.748,0.0
53246.0,STARLINK-4131,PAYLOAD,2022-10-26 22:00:00,15.08826223,0.0002746,53.2162,324.7832,32.6844,142.2608,0.0028033,0.00044594,0.0,0 STARLINK-4131,1 53246U 22086E   22299.91667824  .00044594  00000-0  28033-2 0  9999,2 53246  53.2162 324.7832 0002746  32.6844 142.2608 15.08826223  1300,6917.9230000000025,95.438,541.687,537.888,0.0
53246.0,STARLINK-4131,PAYLOAD,2022-10-27 06:00:00,15.08871186,0.0002876,53.2164,323.2876,33.8279,152.7184,-0.0010035,-0.00016239,0.0,0 STARLINK-4131,1 53246U 22086E   22300.25001157 -.00016239  00000-0 -10035-2 0  9990,2 53246  53.2164 323.2876 0002876  33.8279 152.7184 15.08871186 15132,6917.785,95.436,541.64,537.661,0.0
53246.0,STARLINK-4131,PAYLOAD,2022-10-27 14:00:01,15.08868479,0.0003,53.2162,321.7916,31.7944,166.4399,0.00070616,0.00010977,0.0,0 STARLINK-4131,1 53246U 22086E   22300.58335648  .00010977  00000-0  70616-3 0  9994,2 53246  53.2162 321.7916 0003000  31.7944 166.4399 15.08868479  1309,6917.793000000002,95.436,541.734,537.5830000000002,0.0
53246.0,STARLINK-4131,PAYLOAD,2022-10-27 22:00:00,15.08845669,0.0002742,53.2164,320.2934,33.2705,176.5456,0.0010749,0.00016863,0.0,0 STARLINK-4131,1 53246U 22086E   22300.91667824  .00016863  00000-0  10749-2 0  9995,2 53246  53.2164 320.2934 0002742  33.2705 176.5456 15.08845669  1301,6917.863,95.437,541.625,537.831,0.0
53246.0,STARLINK-4131,PAYLOAD,2022-10-28 00:00:02,15.08853729,0.000271,53.2166,319.9190000000001,34.1448,268.639,0.00056878,8.779e-05,0.0,0 STARLINK-4131,1 53246U 22086E   22301.00002315  .00008779  00000-0  56878-3 0  9995,2 53246  53.2166 319.9190 0002710  34.1448 268.6390 15.08853729 15256,6917.8380000000025,95.437,541.578,537.8290000000002,0.0
53246.0,STARLINK-4131,PAYLOAD,2022-10-28 14:00:01,15.08854413,0.00029,53.2164,317.3019,30.2121,202.8867,-0.00013062,-2.368e-05,0.0,0 STARLINK-4131,1 53246U 22086E   22301.58335648 -.00002368  00000-0 -13062-3 0  9994,2 53246  53.2164 317.3019 0002900  30.2121 202.8867 15.08854413  1303,6917.8359999999975,95.437,541.7080000000002,537.695,0.0
53246.0,STARLINK-4131,PAYLOAD,2022-10-28 22:00:01,15.08820858,0.0002641,53.2166,315.8037,32.0076,212.7155,0.0023843,0.00037844,0.0,0 STARLINK-4131,1 53246U 22086E   22301.91668981  .00037844  00000-0  23843-2 0  9992,2 53246  53.2166 315.8037 0002641  32.0076 212.7155 15.08820858  1305,6917.939,95.439,541.631,537.977,0.0
53246.0,STARLINK-4131,PAYLOAD,2022-10-29 12:00:00,15.08810929,0.0002833999999999,53.2165,313.187,28.8858,146.0709,0.0039206,0.00062616,0.0,0 STARLINK-4131,1 53246U 22086E   22302.50001157  .00062616  00000-0  39206-2 0  9999,2 53246  53.2165 313.1870 0002834  28.8858 146.0709 15.08810929  1307,6917.969,95.439,541.795,537.874,0.0
53246.0,STARLINK-4131,PAYLOAD,2022-10-29 22:00:01,15.08790787,0.0002643,53.2168,311.3122,29.4887,250.0167,0.0018066,0.00028543,0.0,0 STARLINK-4131,1 53246U 22086E   22302.91668981  .00028543  00000-0  18066-2 0  9990,2 53246  53.2168 311.3122 0002643  29.4887 250.0167 15.08790787  1300,6918.031,95.441,541.724,538.067,0.0
53246.0,STARLINK-4131,PAYLOAD,2022-10-30 00:00:00,15.08779181,0.0002653,53.217,310.9378,30.9198,341.4126,0.0042347,0.00067644,0.0,0 STARLINK-4131,1 53246U 22086E   22303.00001157  .00067644  00000-0  42347-2 0  9991,2 53246  53.2170 310.9378 0002653  30.9198 341.4126 15.08779181 15551,6918.066,95.441,541.7669999999998,538.096,0.0
53246.0,STARLINK-4131,PAYLOAD,2022-10-30 14:00:01,15.08862823,0.0002706,53.2159,308.3235,28.1265,274.468,-0.0028602,-0.00045553,0.0,0 STARLINK-4131,1 53246U 22086E   22303.58334491 -.00045553  00000-0 -28602-2 0  9999,2 53246  53.2159 308.3235 0002706  28.1265 274.4680 15.08862823  1308,6917.811,95.436,541.548,537.804,0.0
53246.0,STARLINK-4131,PAYLOAD,2022-10-30 22:00:01,15.08808404,0.0002484,53.2159,306.8256,31.0479,283.2214,0.0037359,0.00059622,0.0,0 STARLINK-4131,1 53246U 22086E   22303.91668981  .00059622  00000-0  37359-2 0  9999,2 53246  53.2159 306.8256 0002484  31.0479 283.2214 15.08808404  1303,6917.977,95.44,541.56,538.124,0.0
53246.0,STARLINK-4131,PAYLOAD,2022-10-31 14:00:01,15.08838977,0.0002672,53.2156,303.8344,27.343000000000004,310.0311,-0.00036556,-6.102e-05,0.0,0 STARLINK-4131,1 53246U 22086E   22304.58334491 -.00006102  00000-0 -36556-3 0  9995,2 53246  53.2156 303.8344 0002672  27.3430 310.0311 15.08838977  1304,6917.884,95.438,541.597,537.9,0.0
53246.0,STARLINK-4131,PAYLOAD,2022-10-31 22:00:01,15.08833629,0.0002474,53.2155,302.3365,31.0293,318.0049,0.0013127,0.00020662,0.0,0 STARLINK-4131,1 53246U 22086E   22304.91668981  .00020662  00000-0  13127-2 0  9999,2 53246  53.2155 302.3365 0002474  31.0293 318.0049 15.08833629 15848,6917.9,95.438,541.476,538.053,0.0
53246.0,STARLINK-4131,PAYLOAD,2022-11-01 14:00:01,15.08859202,0.0002673,53.2154,299.3452,27.2721,344.8814,-0.0011533,-0.00018607,0.0,0 STARLINK-4131,1 53246U 22086E   22305.58334491 -.00018607  00000-0 -11533-2 0  9996,2 53246  53.2154 299.3452 0002673  27.2721 344.8814 15.08859202  1301,6917.821999999999,95.436,541.536,537.8380000000002,0.0
53246.0,STARLINK-4131,PAYLOAD,2022-11-01 22:00:00,15.088359400000002,0.0002466,53.2154,297.8474,29.9331,353.837,0.00027644,4.114e-05,0.0,0 STARLINK-4131,1 53246U 22086E   22305.91667824  .00004114  00000-0  27644-3 0  9999,2 53246  53.2154 297.8474 0002466  29.9331 353.8370 15.08835940  1304,6917.893,95.438,541.464,538.052,0.0
53246.0,STARLINK-4131,PAYLOAD,2022-11-02 14:00:01,15.08843413,0.0002691,53.2157,294.8552,26.3423,20.5932,-0.00065581,-0.00010712,0.0,0 STARLINK-4131,1 53246U 22086E   22306.58334491 -.00010712  00000-0 -65581-3 0  9999,2 53246  53.2157 294.8552 0002691  26.3423  20.5932 15.08843413  1300,6917.87,95.437,541.597,537.873,0.0
53246.0,STARLINK-4131,PAYLOAD,2022-11-02 18:33:46,15.0883603,0.0002867,53.2166,294.0027,28.782,331.333,-4.791899999999999e-05,-1.051e-05,0.0,0 STARLINK-4131,1 53246U 22086E   22306.77345169 -.00001051  00000-0 -47919-4 0  9996,2 53246  53.2166 294.0027 0002867  28.7820 331.3330 15.08836030 16129,6917.893,95.438,541.741,537.774,0.0
53246.0,STARLINK-4131,PAYLOAD,2022-11-03 04:06:04,15.08852299,0.000263,53.2161,292.2168,31.9039,328.2112,0.0002585,3.83e-05,0.0,0 STARLINK-4131,1 53246U 22086E   22307.17088428  .00003830  00000-0  25850-3 0  9997,2 53246  53.2161 292.2168 0002630  31.9039 328.2112 15.08852299 16180,6917.843000000003,95.437,541.5269999999998,537.888,0.0
53246.0,STARLINK-4131,PAYLOAD,2022-11-03 08:52:13,15.08853091,0.0002644,53.216,291.3252,30.4408,329.6738,0.00040969,6.24e-05,0.0,0 STARLINK-4131,1 53246U 22086E   22307.36960463  .00006240  00000-0  40969-3 0  9992,2 53246  53.2160 291.3252 0002644  30.4408 329.6738 15.08853091 15608,6917.84,95.437,541.534,537.876,0.0
53246.0,STARLINK-4131,PAYLOAD,2022-11-04 08:43:00,15.08859343,0.0002569,53.2162,286.8655,32.5937,327.5214,0.00033299,5.018e-05,0.0,0 STARLINK-4131,1 53246U 22086E   22308.36319630  .00005018  00000-0  33299-3 0  9997,2 53246  53.2162 286.8655 0002569  32.5937 327.5214 15.08859343 16368,6917.821,95.436,541.4630000000002,537.909,0.0
53246.0,STARLINK-4131,PAYLOAD,2022-11-05 02:12:14,15.08842729,0.0002599,53.2154,283.5915,23.3827,336.7283,-4.5422e-05,-1.011e-05,0.0,0 STARLINK-4131,1 53246U 22086E   22309.09183799 -.00001011  00000-0 -45422-4 0  9996,2 53246  53.2154 283.5915 0002599  23.3827 336.7283 15.08842729 16471,6917.871999999999,95.437,541.535,537.939,0.0
53246.0,STARLINK-4131,PAYLOAD,2022-11-05 10:09:10,15.08831787,0.0002706,53.2163,282.1069,27.8082,332.3055,-0.00022754,-3.907e-05,0.0,0 STARLINK-4131,1 53246U 22086E   22309.42304274 -.00003907  00000-0 -22754-3 0  9994,2 53246  53.2163 282.1069 0002706  27.8082 332.3055 15.08831787 16525,6917.905,95.438,541.6419999999998,537.899,0.0
53246.0,STARLINK-4131,PAYLOAD,2022-11-05 14:55:21,15.088170000000002,0.0002373,53.2163,281.2157,29.3939,330.7186,-0.00035982,-6.007e-05,0.0,0 STARLINK-4131,1 53246U 22086E   22309.62177293 -.00006007  00000-0 -35982-3 0  9996,2 53246  53.2163 281.2157 0002373  29.3939 330.7186 15.08817000 16553,6917.951,95.439,541.457,538.174,0.0
53246.0,STARLINK-4131,PAYLOAD,2022-11-06 05:13:49,15.08826381,0.0002601,53.2165,278.5388,29.7947,330.3193,-0.00014346,-2.57e-05,0.0,0 STARLINK-4131,1 53246U 22086E   22310.21793503 -.00002570  00000-0 -14346-3 0  9993,2 53246  53.2165 278.5388 0002601  29.7947 330.3193 15.08826381 16643,6917.922,95.438,541.586,537.988,0.0
53246.0,STARLINK-4131,PAYLOAD,2022-11-06 08:24:36,15.08826836,0.0002578,53.2161,277.9436,34.4655,325.6504,-7.820699999999999e-05,-1.533e-05,0.0,0 STARLINK-4131,1 53246U 22086E   22310.35041695 -.00001533  00000-0 -78207-4 0  9991,2 53246  53.2161 277.9436 0002578  34.4655 325.6504 15.08826836 16051,6917.920999999999,95.438,541.569,538.002,0.0
53246.0,STARLINK-4131,PAYLOAD,2022-11-07 05:04:37,15.08836722,0.0002577,53.2161,274.0774,32.7383,327.3768,0.0005235,8.053e-05,0.0,0 STARLINK-4131,1 53246U 22086E   22311.21154339  .00008053  00000-0  52350-3 0  9999,2 53246  53.2161 274.0774 0002577  32.7383 327.3768 15.08836722 16799,6917.89,95.438,541.538,537.9730000000002,0.0
